OBJECT_NAME,OBJECT_ID,EPOCH,MEAN_MOTION,ECCENTRICITY,INCLINATION,RA_OF_ASC_NODE,ARG_OF_PERICENTER,MEAN_ANOMALY,EPHEMERIS_TYPE,CLASSIFICATION_TYPE,NORAD_CAT_ID,ELEMENT_SET_NO,REV_AT_EPOCH,BSTAR,MEAN_MOTION_DOT,MEAN_MOTION_DDOT
KUZGTU 1 (RS47S),2023-091AV,2026-07-01T03:51:30.163392,15.30181818,.0011536,97.5059,246.7850,54.1248,306.1062,0,U,57217,999,16651,.53743E-3,.15663E-3,0
SONATE-2,2024-043Q,2026-06-30T20:56:07.654848,15.59751983,.0007194,97.5541,333.1180,151.0816,209.0840,0,U,59112,999,13002,.57664E-3,.46267E-3,0
MESAT1,2024-125G,2026-07-01T01:18:56.236320,15.64760581,.0010723,97.2265,39.8672,156.4654,203.7098,0,U,60209,999,11173,.86208E-3,.84554E-3,0
OOV-CUBE (TUBSAT-30),2024-128F,2026-07-01T02:16:46.818048,15.02824797,.0042922,61.9925,177.0745,136.8688,223.5779,0,U,60240,999,10820,.16541E-3,.2054E-4,0
COLIBRI-S (RS67S),2024-199M,2026-07-01T03:41:31.306848,15.48301150,.0007146,97.2971,56.1390,213.9427,146.1368,0,U,61746,999,13957,.55745E-3,.29441E-3,0
HORS 3 (RS81S),2024-199U,2026-07-01T04:17:03.291648,15.55950693,.0005099,97.2954,58.3058,204.2870,155.8146,0,U,61753,999,13973,.67532E-3,.47004E-3,0
HORS 4 (RS82S),2024-199V,2026-07-01T03:49:46.353792,15.61030006,.0005144,97.2898,59.5816,191.8675,168.2462,0,U,61754,999,13982,.90583E-3,.76612E-3,0
SIT-2086,2024-199AF,2026-07-01T04:10:13.581120,15.54051841,.0006459,97.2911,58.7292,189.1133,171.0005,0,U,61764,999,13660,.71199E-3,.46249E-3,0
HYPERVIEW 1G (RS66S),2024-199AP,2026-07-01T03:25:27.493248,15.80026878,.0006937,97.2834,62.6059,176.4756,183.6562,0,U,61772,999,13687,.12137E-2,.230449E-2,0
ALTAIR (RS65S),2024-199AW,2026-07-01T04:09:23.740416,15.37293183,.0010867,97.3009,51.4329,252.3239,107.6820,0,U,61779,999,13926,.38334E-3,.1396E-3,0
ASRTU-1 (AO-123),2024-199AY,2026-07-01T04:09:59.020992,15.35873887,.001193,97.2979,50.7187,256.2504,103.7412,0,U,61781,999,13607,.2789E-3,.968E-4,0
SAMSAT-IONOSPHERE (RS75S),2024-199BB,2026-07-01T04:30:05.459616,15.58872421,.0007289,97.2921,58.4146,210.0085,150.0755,0,U,61784,999,13974,.80933E-3,.62987E-3,0
RTU MIREA 1 (RS51S),2024-199BC,2026-07-01T04:18:41.283072,15.62654490,.0007334,97.2905,59.3136,202.4326,157.6612,0,U,61785,999,13665,.92442E-3,.8336E-3,0
TEVEL2-4,2025-052D,2026-06-29T23:03:25.420896,15.35054118,.00047321,97.3893,77.3762,79.7406,280.4371,0,U,63213,999,7207,.57064181E-3,.19361E-3,0
TEVEL2-5,2025-052E,2026-06-30T05:50:33.814752,15.34882414,.00047019,97.3890,77.6036,80.7172,279.4603,0,U,63214,999,7211,.49541717E-3,.16701E-3,0
TEVEL2-6,2025-052F,2026-06-30T23:21:25.872768,15.34878208,.0004484,97.3895,78.3191,80.3249,279.8501,0,U,63215,999,7222,.65161E-3,.22002E-3,0
TEVEL2-1,2025-052H,2026-06-29T23:07:36.552864,15.34288206,.00049749,97.3866,76.9168,89.0963,271.0850,0,U,63217,999,7205,.5556305E-3,.18395E-3,0
TEVEL2-3,2025-052J,2026-06-29T22:59:12.512544,15.34347673,.00048285,97.3871,76.9346,90.2105,269.9691,0,U,63218,999,7205,.55721892E-3,.18482E-3,0
TEVEL2-2,2025-052K,2026-06-28T15:49:37.369056,15.34253315,.00050154,97.3871,75.6148,92.1173,268.0645,0,U,63219,999,7185,.51245467E-3,.16937E-3,0
OTP-2,2025-052AB,2026-06-30T22:46:51.069216,15.24168530,.0008165,97.3857,74.1742,109.0770,251.1352,0,U,63235,999,7196,.37745E-3,.9129E-4,0
TEVEL2-9,2025-052AD,2026-06-30T05:15:32.433696,15.32290550,.00083087,97.3929,76.5220,96.6090,263.6098,0,U,63237,999,7202,.47181125E-3,.14659E-3,0
TEVEL2-7,2025-052AE,2026-06-30T15:42:26.875008,15.31999023,.0008383,97.3931,76.8668,95.4653,264.7545,0,U,63238,999,7208,.53276678E-3,.16416E-3,0
TEVEL2-8,2025-052AF,2026-06-30T23:44:48.020352,15.31998432,.0008439,97.3930,77.1776,95.2940,264.9265,0,U,63239,999,7213,.64443E-3,.19882E-3,0
INNOSAT 16 (RS92S7),2025-155C,2026-07-01T04:05:06.569088,15.25605189,.0011986,97.4571,149.2548,130.3288,229.8999,0,U,64878,999,8280,.28323E-3,.7138E-4,0
GEOSCAN 6 (RS92S6),2025-155D,2026-07-01T04:12:02.710368,15.30411675,.000973,97.4562,150.7835,120.9519,239.2679,0,U,64879,999,8290,.45198E-3,.13243E-3,0
GEOSCAN 1 (RS92S1),2025-155E,2026-07-01T04:07:33.882816,15.31037813,.0009671,97.4559,150.9407,121.0349,239.1842,0,U,64880,999,8291,.47755E-3,.14273E-3,0
239ALFEROV (RS61S),2025-155F,2026-07-01T04:28:31.485792,15.33318909,.0009341,97.4559,151.5646,119.7227,240.4946,0,U,64881,999,8295,.60864E-3,.19571E-3,0
GEOSCAN 2 (RS92S2),2025-155Q,2026-07-01T03:54:57.030912,15.31296685,.0009156,97.4558,151.0899,110.4379,249.7846,0,U,64890,999,8292,.45373E-3,.13664E-3,0
GEOSCAN 5 (RS92S5),2025-155R,2026-07-01T04:08:33.948096,15.33632127,.0008262,97.4551,151.6934,123.2034,237.0001,0,U,64891,999,8296,.58144E-3,.1887E-3,0
GEOSCAN 4 (RS92S4),2025-155S,2026-07-01T03:43:44.569344,15.33792393,.0008293,97.4555,151.7285,123.1259,237.0780,0,U,64892,999,8296,.57644E-3,.18803E-3,0
