KUZGTU 1 (RS47S)        
1 57217U 23091AV  26182.16076578  .00015663  00000+0  53743-3 0  9991
2 57217  97.5059 246.7850 0011536  54.1248 306.1062 15.30181818166514
SONATE-2                
1 59112U 24043Q   26181.87231082  .00046267  00000+0  57664-3 0  9995
2 59112  97.5541 333.1180 0007194 151.0816 209.0840 15.59751983130025
MESAT1                  
1 60209U 24125G   26182.05481755  .00084554  00000+0  86208-3 0  9997
2 60209  97.2265  39.8672 0010723 156.4654 203.7098 15.64760581111734
OOV-CUBE (TUBSAT-30)    
1 60240U 24128F   26182.09498632  .00002054  00000+0  16541-3 0  9999
2 60240  61.9925 177.0745 0042922 136.8688 223.5779 15.02824797108207
COLIBRI-S (RS67S)       
1 61746U 24199M   26182.15383457  .00029441  00000+0  55745-3 0  9992
2 61746  97.2971  56.1390 0007146 213.9427 146.1368 15.48301150139573
HORS 3 (RS81S)          
1 61753U 24199U   26182.17851032  .00047004  00000+0  67532-3 0  9993
2 61753  97.2954  58.3058 0005099 204.2870 155.8146 15.55950693139736
HORS 4 (RS82S)          
1 61754U 24199V   26182.15956428  .00076612  00000+0  90583-3 0  9996
2 61754  97.2898  59.5816 0005144 191.8675 168.2462 15.61030006139827
SIT-2086                
1 61764U 24199AF  26182.17376830  .00046249  00000+0  71199-3 0  9997
2 61764  97.2911  58.7292 0006459 189.1133 171.0005 15.54051841136602
HYPERVIEW 1G (RS66S)    
1 61772U 24199AP  26182.14267932  .00230449  00000+0  12137-2 0  9998
2 61772  97.2834  62.6059 0006937 176.4756 183.6562 15.80026878136878
ALTAIR (RS65S)          
1 61779U 24199AW  26182.17319144  .00013960  00000+0  38334-3 0  9996
2 61779  97.3009  51.4329 0010867 252.3239 107.6820 15.37293183139269
ASRTU-1 (AO-123)        
1 61781U 24199AY  26182.17359978  .00009680  00000+0  27890-3 0  9997
2 61781  97.2979  50.7187 0011930 256.2504 103.7412 15.35873887136074
SAMSAT-IONOSPHERE (RS7*)
1 61784U 24199BB  26182.18756319  .00062987  00000+0  80933-3 0  9997
2 61784  97.2921  58.4146 0007289 210.0085 150.0755 15.58872421139748
RTU MIREA 1 (RS51S)     
1 61785U 24199BC  26182.17964448  .00083360  00000+0  92442-3 0  9997
2 61785  97.2905  59.3136 0007334 202.4326 157.6612 15.62654490136655
TEVEL2-4                
1 63213U 25052D   26180.96071089  .00019361  00000+0  57064-3 0  9990
2 63213  97.3893  77.3762 0004732  79.7406 280.4371 15.35054118 72071
TEVEL2-5                
1 63214U 25052E   26181.24344693  .00016701  00000+0  49542-3 0  9994
2 63214  97.3890  77.6036 0004701  80.7172 279.4603 15.34882414 72112
TEVEL2-6                
1 63215U 25052F   26181.97321612  .00022002  00000+0  65161-3 0  9997
2 63215  97.3895  78.3191 0004484  80.3249 279.8501 15.34878208 72226
TEVEL2-1                
1 63217U 25052H   26180.96361751  .00018395  00000+0  55563-3 0  9990
2 63217  97.3866  76.9168 0004974  89.0963 271.0850 15.34288206 72052
TEVEL2-3                
1 63218U 25052J   26180.95778371  .00018482  00000+0  55722-3 0  9994
2 63218  97.3871  76.9346 0004828  90.2105 269.9691 15.34347673 72050
TEVEL2-2                
1 63219U 25052K   26179.65946029  .00016937  00000+0  51245-3 0  9996
2 63219  97.3871  75.6148 0005015  92.1173 268.0645 15.34253315 71857
OTP-2                   
1 63235U 25052AB  26181.94920219  .00009129  00000+0  37745-3 0  9996
2 63235  97.3857  74.1742 0008165 109.0770 251.1352 15.24168530 71966
TEVEL2-9                
1 63237U 25052AD  26181.21912539  .00014659  00000+0  47181-3 0  9993
2 63237  97.3929  76.5220 0008308  96.6090 263.6098 15.32290550 72020
TEVEL2-7                
1 63238U 25052AE  26181.65447772  .00016416  00000+0  53277-3 0  9990
2 63238  97.3931  76.8668 0008383  95.4653 264.7545 15.31999023 72083
TEVEL2-8                
1 63239U 25052AF  26181.98944468  .00019882  00000+0  64443-3 0  9998
2 63239  97.3930  77.1776 0008439  95.2940 264.9265 15.31998432 72136
INNOSAT 16 (RS92S7)     
1 64878U 25155C   26182.17021492  .00007138  00000+0  28323-3 0  9995
2 64878  97.4571 149.2548 0011986 130.3288 229.8999 15.25605189 82809
GEOSCAN 6 (RS92S6)      
1 64879U 25155D   26182.17503137  .00013243  00000+0  45198-3 0  9990
2 64879  97.4562 150.7835 0009730 120.9519 239.2679 15.30411675 82904
GEOSCAN 1 (RS92S1)      
1 64880U 25155E   26182.17191994  .00014273  00000+0  47755-3 0  9991
2 64880  97.4559 150.9407 0009671 121.0349 239.1842 15.31037813 82917
239ALFEROV (RS61S)      
1 64881U 25155F   26182.18647553  .00019571  00000+0  60864-3 0  9992
2 64881  97.4559 151.5646 0009341 119.7227 240.4946 15.33318909 82957
GEOSCAN 2 (RS92S2)      
1 64890U 25155Q   26182.16316008  .00013664  00000+0  45373-3 0  9993
2 64890  97.4558 151.0899 0009156 110.4379 249.7846 15.31296685 82923
GEOSCAN 5 (RS92S5)      
1 64891U 25155R   26182.17261514  .00018870  00000+0  58144-3 0  9990
2 64891  97.4551 151.6934 0008262 123.2034 237.0001 15.33632127 82964
GEOSCAN 4 (RS92S4)      
1 64892U 25155S   26182.15537696  .00018803  00000+0  57644-3 0  9996
2 64892  97.4555 151.7285 0008293 123.1259 237.0780 15.33792393 82967
